[
    {
        "Altitude(m)": 559576.6689996498,
        "Argument of Periapsis(deg)": 0.019868973332140504,
        "Eccentricity": 0.0,
        "Inclination(deg)": 53.0,
        "Latitude(deg)": 51.72404075797121,
        "Longitude(deg)": -39.14256088076985,
        "Mean Anomaly(deg)": -258.81612139726724,
        "RAAN(deg)": 314.97043010558406,
        "Satellite Name": "Starlink Shell 1 1390",
        "Satellite Number": 1390,
        "Semi-Major Axis(m)": 6931778.249405717,
        "Time(s)": 570
    },
    {
        "Altitude(m)": 559540.0175958362,
        "Argument of Periapsis(deg)": 0.02021755181165174,
        "Eccentricity": 0.0,
        "Inclination(deg)": 53.0,
        "Latitude(deg)": 51.56325511085797,
        "Longitude(deg)": -38.21011477289797,
        "Mean Anomaly(deg)": -258.1892901937105,
        "RAAN(deg)": 314.9699113355066,
        "Satellite Name": "Starlink Shell 1 1390",
        "Satellite Number": 1390,
        "Semi-Major Axis(m)": 6931778.249405717,
        "Time(s)": 580
    },
    {
        "Altitude(m)": 559501.5146084215,
        "Argument of Periapsis(deg)": 0.020566130291162974,
        "Eccentricity": 0.0,
        "Inclination(deg)": 53.0,
        "Latitude(deg)": 51.394446974614574,
        "Longitude(deg)": -37.28467693807657,
        "Mean Anomaly(deg)": -257.56245899015386,
        "RAAN(deg)": 314.96939256542913,
        "Satellite Name": "Starlink Shell 1 1390",
        "Satellite Number": 1390,
        "Semi-Major Axis(m)": 6931778.249405717,
        "Time(s)": 590
    },
    {
        "Altitude(m)": 559461.1833316685,
        "Argument of Periapsis(deg)": 0.020914708770674213,
        "Eccentricity": 0.0,
        "Inclination(deg)": 53.0,
        "Latitude(deg)": 51.217722381165444,
        "Longitude(deg)": -36.36648834964301,
        "Mean Anomaly(deg)": -256.93562778659714,
        "RAAN(deg)": 314.9688737953516,
        "Satellite Name": "Starlink Shell 1 1390",
        "Satellite Number": 1390,
        "Semi-Major Axis(m)": 6931778.249405717,
        "Time(s)": 600
    },
    {
        "Altitude(m)": 559419.0481831454,
        "Argument of Periapsis(deg)": 0.021263287250185448,
        "Eccentricity": 0.0,
        "Inclination(deg)": 53.0,
        "Latitude(deg)": 51.03319038398788,
        "Longitude(deg)": -35.45577355540044,
        "Mean Anomaly(deg)": -256.30879658304036,
        "RAAN(deg)": 314.96835502527415,
        "Satellite Name": "Starlink Shell 1 1390",
        "Satellite Number": 1390,
        "Semi-Major Axis(m)": 6931778.249405717,
        "Time(s)": 610
    },
    {
        "Altitude(m)": 559375.1346917637,
        "Argument of Periapsis(deg)": 0.021611865729696686,
        "Eccentricity": 0.0,
        "Inclination(deg)": 53.0,
        "Latitude(deg)": 50.840962772735026,
        "Longitude(deg)": -34.55274015099529,
        "Mean Anomaly(deg)": -255.68196537948367,
        "RAAN(deg)": 314.9678362551967,
        "Satellite Name": "Starlink Shell 1 1390",
        "Satellite Number": 1390,
        "Semi-Major Axis(m)": 6931778.249405717,
        "Time(s)": 620
    },
    {
        "Altitude(m)": 559329.4694852744,
        "Argument of Periapsis(deg)": 0.02196044420920792,
        "Eccentricity": 0.0,
        "Inclination(deg)": 53.0,
        "Latitude(deg)": 50.64115379074865,
        "Longitude(deg)": -33.65758000692257,
        "Mean Anomaly(deg)": -255.05513417592698,
        "RAAN(deg)": 314.9673174851192,
        "Satellite Name": "Starlink Shell 1 1390",
        "Satellite Number": 1390,
        "Semi-Major Axis(m)": 6931778.249405717,
        "Time(s)": 630
    },
    {
        "Altitude(m)": 559282.0802772222,
        "Argument of Periapsis(deg)": 0.02230902268871916,
        "Eccentricity": 0.0,
        "Inclination(deg)": 53.0,
        "Latitude(deg)": 50.43387985679067,
        "Longitude(deg)": -32.77046804238254,
        "Mean Anomaly(deg)": -254.4283029723702,
        "RAAN(deg)": 314.9667987150417,
        "Satellite Name": "Starlink Shell 1 1390",
        "Satellite Number": 1390,
        "Semi-Major Axis(m)": 6931778.249405717,
        "Time(s)": 640
    },
    {
        "Altitude(m)": 559232.9958533505,
        "Argument of Periapsis(deg)": 0.022657601168230398,
        "Eccentricity": 0.0,
        "Inclination(deg)": 53.0,
        "Latitude(deg)": 50.219259292198274,
        "Longitude(deg)": -31.891563584201233,
        "Mean Anomaly(deg)": -253.8014717688135,
        "RAAN(deg)": 314.9662799449643,
        "Satellite Name": "Starlink Shell 1 1390",
        "Satellite Number": 1390,
        "Semi-Major Axis(m)": 6931778.249405717,
        "Time(s)": 650
    },
    {
        "Altitude(m)": 559182.2460574694,
        "Argument of Periapsis(deg)": 0.023006179647741636,
        "Eccentricity": 0.0,
        "Inclination(deg)": 53.0,
        "Latitude(deg)": 49.997412054563846,
        "Longitude(deg)": -31.021010103462373,
        "Mean Anomaly(deg)": -253.1746405652568,
        "RAAN(deg)": 314.96576117488684,
        "Satellite Name": "Starlink Shell 1 1390",
        "Satellite Number": 1390,
        "Semi-Major Axis(m)": 6931778.249405717,
        "Time(s)": 660
    },
    {
        "Altitude(m)": 559129.8617768142,
        "Argument of Periapsis(deg)": 0.023354758127252868,
        "Eccentricity": 0.0,
        "Inclination(deg)": 53.0,
        "Latitude(deg)": 49.76845947891378,
        "Longitude(deg)": -30.158935005713264,
        "Mean Anomaly(deg)": -252.54780936170008,
        "RAAN(deg)": 314.9652424048093,
        "Satellite Name": "Starlink Shell 1 1390",
        "Satellite Number": 1390,
        "Semi-Major Axis(m)": 6931778.249405717,
        "Time(s)": 670
    },
    {
        "Altitude(m)": 559075.8749268611,
        "Argument of Periapsis(deg)": 0.023703336606764106,
        "Eccentricity": 0.0,
        "Inclination(deg)": 53.0,
        "Latitude(deg)": 49.53252402723936,
        "Longitude(deg)": -29.30545098240712,
        "Mean Anomaly(deg)": -251.92097815814338,
        "RAAN(deg)": 314.96472363473185,
        "Satellite Name": "Starlink Shell 1 1390",
        "Satellite Number": 1390,
        "Semi-Major Axis(m)": 6931778.249405717,
        "Time(s)": 680
    },
    {
        "Altitude(m)": 559020.3184356374,
        "Argument of Periapsis(deg)": 0.024051915086275345,
        "Eccentricity": 0.0,
        "Inclination(deg)": 53.0,
        "Latitude(deg)": 49.289729047123224,
        "Longitude(deg)": -28.460655892611744,
        "Mean Anomaly(deg)": -251.2941469545867,
        "RAAN(deg)": 314.9642048646544,
        "Satellite Name": "Starlink Shell 1 1390",
        "Satellite Number": 1390,
        "Semi-Major Axis(m)": 6931778.249405717,
        "Time(s)": 690
    },
    {
        "Altitude(m)": 558963.226227525,
        "Argument of Periapsis(deg)": 0.024400493565786583,
        "Eccentricity": 0.0,
        "Inclination(deg)": 53.0,
        "Latitude(deg)": 49.04019854007978,
        "Longitude(deg)": -27.624632682648535,
        "Mean Anomaly(deg)": -250.66731575102997,
        "RAAN(deg)": 314.96368609457693,
        "Satellite Name": "Starlink Shell 1 1390",
        "Satellite Number": 1390,
        "Semi-Major Axis(m)": 6931778.249405717,
        "Time(s)": 700
    },
    {
        "Altitude(m)": 558904.6332065515,
        "Argument of Periapsis(deg)": 0.024749072045297815,
        "Eccentricity": 0.0,
        "Inclination(deg)": 53.0,
        "Latitude(deg)": 48.78405694011583,
        "Longitude(deg)": -26.797450851418848,
        "Mean Anomaly(deg)": -250.0404845474732,
        "RAAN(deg)": 314.96316732449947,
        "Satellite Name": "Starlink Shell 1 1390",
        "Satellite Number": 1390,
        "Semi-Major Axis(m)": 6931778.249405717,
        "Time(s)": 710
    },
    {
        "Altitude(m)": 558844.575239196,
        "Argument of Periapsis(deg)": 0.025097650524809053,
        "Eccentricity": 0.0,
        "Inclination(deg)": 53.0,
        "Latitude(deg)": 48.521428902915886,
        "Longitude(deg)": -25.979166430694118,
        "Mean Anomaly(deg)": -249.41365334391656,
        "RAAN(deg)": 314.96264855442195,
        "Satellite Name": "Starlink Shell 1 1390",
        "Satellite Number": 1390,
        "Semi-Major Axis(m)": 6931778.249405717,
        "Time(s)": 720
    },
    {
        "Altitude(m)": 558783.0891367004,
        "Argument of Periapsis(deg)": 0.02544622900432029,
        "Eccentricity": 0.0,
        "Inclination(deg)": 53.0,
        "Latitude(deg)": 48.25243910594811,
        "Longitude(deg)": -25.16982198843667,
        "Mean Anomaly(deg)": -248.78682214035982,
        "RAAN(deg)": 314.9621297843445,
        "Satellite Name": "Starlink Shell 1 1390",
        "Satellite Number": 1390,
        "Semi-Major Axis(m)": 6931778.249405717,
        "Time(s)": 730
    },
    {
        "Altitude(m)": 558720.2126369099,
        "Argument of Periapsis(deg)": 0.02579480748383153,
        "Eccentricity": 0.0,
        "Inclination(deg)": 53.0,
        "Latitude(deg)": 47.97721205968907,
        "Longitude(deg)": -24.369448163434274,
        "Mean Anomaly(deg)": -248.15999093680304,
        "RAAN(deg)": 314.961611014267,
        "Satellite Name": "Starlink Shell 1 1390",
        "Satellite Number": 1390,
        "Semi-Major Axis(m)": 6931778.249405717,
        "Time(s)": 740
    },
    {
        "Altitude(m)": 558655.9843856298,
        "Argument of Periapsis(deg)": 0.026143385963342765,
        "Eccentricity": 0.0,
        "Inclination(deg)": 53.0,
        "Latitude(deg)": 47.69587193008426,
        "Longitude(deg)": -23.578063701152715,
        "Mean Anomaly(deg)": -247.53315973324638,
        "RAAN(deg)": 314.96109224418956,
        "Satellite Name": "Starlink Shell 1 1390",
        "Satellite Number": 1390,
        "Semi-Major Axis(m)": 6931778.249405717,
        "Time(s)": 750
    }
]